OPS 6582 (TRANSIT 5B-5) 
1 00965U 64083D   21079.86868309  .00000022  00000-0  17443-4 0  9995
2 00965  90.0253 194.2023 0042728 114.1386 359.1927 13.56752862784582
OSCAR 7 (AO-7)          
1 07530U 74089B   21079.90297090 -.00000019  00000-0  16930-3 0  9991
2 07530 101.8449  54.5322 0012092 190.8829 194.3220 12.53647899120633
UOSAT 2 (UO-11)         
1 14781U 84021B   21079.95442523  .00000145  00000-0  23846-4 0  9996
2 14781  97.5930  84.1563 0008920  22.5245 337.6359 14.83260390972811
NOAA 9                  
1 15427U 84123A   21079.93096470  .00000039  00000-0  42559-4 0  9995
2 15427  98.9833  41.8741 0015200  15.8410  53.1173 14.16125751872429
LUSAT (LO-19)           
1 20442U 90005G   21079.88025277  .00000032  00000-0  28064-4 0  9993
2 20442  98.7310  34.5904 0012798  63.9000 296.3499 14.32979654628145
ITAMSAT (IO-26)         
1 22826U 93061D   21079.93518058  .00000006  00000-0  20154-4 0  9999
2 22826  98.9180  95.2690 0007906 281.2946  78.7347 14.30447111433576
RADIO ROSTO (RS-15)     
1 23439U 94085A   21079.92421881 -.00000037  00000-0  15882-3 0  9999
2 23439  64.8135 159.1390 0158247 351.0938   8.7187 11.27570499 80356
JAS-2 (FO-29)           
1 24278U 96046B   21079.79145806 -.00000025  00000-0  10601-4 0  9997
2 24278  98.5748 159.4847 0350679  19.5043 341.9136 13.53102436214255
NOAA 15                 
1 25338U 98030A   21079.88880647  .00000022  00000-0  27847-4 0  9995
2 25338  98.6925 109.1637 0010622 172.8795 187.2537 14.26018000188371
TECHSAT 1B (GO-32)      
1 25397U 98043D   21079.92482618  .00000004  00000-0  21429-4 0  9995
2 25397  98.7620  25.7630 0001416  27.5098 332.6155 14.23703634178897
ISS (ZARYA)             
1 25544U 98067A   21080.18276620 -.00071410  00000-0 -13036-2 0  9993
2 25544  51.6426  58.0002 0004845 143.0914  50.3379 15.48905880274956
ORSTED                  
1 25635U 99008B   21079.93580688  .00000053  00000-0  20171-4 0  9996
2 25635  96.4652  45.1818 0138306 187.5109 172.4020 14.48272045164637
PHASE 3D (AO-40)        
1 26609U 00072B   21076.57091915 -.00000295  00000-0  00000-0 0  9992
2 26609   9.1900 337.4992 7943768 235.5385  23.4984  1.25586160 93439
PCSAT (NO-44)           
1 26931U 01043C   21079.53093255 -.00000006  00000-0  29331-4 0  9999
2 26931  67.0510 149.9286 0007405 266.5783  93.4472 14.30610498 16523
SAUDISAT 1C (SO-50)     
1 27607U 02058C   21079.86579778  .00000066  00000-0  29823-4 0  9993
2 27607  64.5541 249.2314 0031849  56.7867 303.6282 14.75724483981487
CUTE-1 (CO-55)          
1 27844U 03031E   21079.90796603  .00000064  00000-0  48656-4 0  9994
2 27844  98.6831  89.4538 0009398 341.8407  18.2434 14.22295328919396
CUBESAT XI-IV (CO-57)   
1 27848U 03031J   21079.87486975  .00000053  00000-0  43770-4 0  9992
2 27848  98.6890  89.9890 0009550 355.4273   4.6815 14.21874061919223
MOZHAYETS 4 (RS-22)     
1 27939U 03042A   21079.84760872  .00000193  00000-0  43093-4 0  9996
2 27939  98.1249 217.6378 0012463 194.5189 165.5659 14.66956650934531
INMARSAT 4-F1           
1 28628U 05009A   21079.72680249 -.00000259  00000-0  00000-0 0  9994
2 28628   3.3179  30.0764 0002911 337.8405 215.7002  1.00271934 58472
NOAA 18                 
1 28654U 05018A   21079.83696347  .00000094  00000-0  75433-4 0  9993
2 28654  99.0041 144.3125 0014659 168.6414 191.5091 14.12590797815932
CUBESAT XI-V            
1 28895U 05043F   21079.91081726  .00000209  00000-0  48776-4 0  9994
2 28895  98.0431 215.1588 0017952 127.2039 233.0805 14.63880556821050
METOP-A                 
1 29499U 06044A   21079.90758102 -.00000011  00000-0  14185-4 0  9994
2 29499  98.4847 122.6609 0001309 122.2402 226.3504 14.21501481747970
CARTOSAT-2 (IRS-P7)     
1 29710U 07001B   21079.80055442  .00004227  00000-0  13193-3 0  9999
2 29710  97.8788 158.1274 0172541 193.6314 166.0231 15.20519711767172
FALCONSAT-3             
1 30776U 07006E   21079.89497734  .00005797  00000-0  14309-3 0  9994
2 30776  35.4346 309.0341 0002338 206.2869 153.7740 15.39917262779442
CAPE-1                  
1 31130U 07012P   21079.78559013  .00000177  00000-0  48346-4 0  9999
2 31130  98.2266  19.9972 0094515 259.1472  99.9079 14.56649711739044
CARTOSAT-2A             
1 32783U 08021A   21079.76332219  .00000017  00000-0  92690-5 0  9995
2 32783  97.8828 140.8539 0012838 188.1171 171.9811 14.78693328695971
CUTE-1.7+APD II (CO-65) 
1 32785U 08021C   21079.74371999  .00000396  00000-0  48117-4 0  9997
2 32785  97.6037  62.0729 0011623 301.3452  58.6627 14.88660789698976
COMPASS-1               
1 32787U 08021E   21079.92398622  .00001056  00000-0  10405-3 0  9993
2 32787  97.5257  74.5216 0011174 220.3432 139.6961 14.94007375700315
AAUSAT-II               
1 32788U 08021F   21079.50185679  .00000370  00000-0  38364-4 0  9997
2 32788  97.5029  77.9097 0010887 201.8573 158.2186 14.95447785700564
DELFI-C3 (DO-64)        
1 32789U 08021G   21079.87975947  .00001932  00000-0  12708-3 0  9991
2 32789  97.3870 118.6308 0013571  88.5231 271.7552 15.08634768703474
SEEDS II (CO-66)        
1 32791U 08021J   21079.46250157  .00000465  00000-0  52016-4 0  9995
2 32791  97.5654  67.7967 0011629 262.3063  97.6835 14.91316194699510
YUBILEINY (RS-30)       
1 32953U 08025A   21079.85734196  .00000028  00000-0  12906-3 0  9990
2 32953  82.4994 106.0379 0019800 166.6883 193.4724 12.43100745581979
FENGYUN 3A              
1 32958U 08026A   21079.90123778  .00000017  00000-0  27923-4 0  9994
2 32958  98.4413  57.7705 0007577 254.3754 105.6587 14.18650176664024
PRISM (HITOMI)          
1 33493U 09002B   21079.86577906  .00000625  00000-0  59122-4 0  9996
2 33493  98.1784  38.2023 0014106 217.8141 142.2090 14.97500517661061
STARS (KUKAI)           
1 33498U 09002G   21079.72307091  .00000278  00000-0  44759-4 0  9996
2 33498  98.2272 317.8208 0009567 272.5249  87.4866 14.79300915654346
KKS-1 (KISEKI)          
1 33499U 09002H   21079.84712483  .00000142  00000-0  28736-4 0  9992
2 33499  98.2825 307.7778 0008437 331.5195  28.5551 14.75630558653343
NOAA 19                 
1 33591U 09005A   21079.93347489  .00000008  00000-0  29623-4 0  9995
2 33591  99.1911  98.4146 0014246  24.6685 335.5164 14.12456301624166
SWISSCUBE               
1 35932U 09051B   21079.53008195  .00000165  00000-0  48058-4 0  9998
2 35932  98.6080 276.7227 0007678   9.5300 350.6041 14.56502237610015
BEESAT-1                
1 35933U 09051C   21079.49933902  .00000124  00000-0  38784-4 0  9997
2 35933  98.6052 278.5354 0006157  24.5769 335.5720 14.56564239610086
ITUPSAT1                
1 35935U 09051E   21079.58809993  .00000117  00000-0  37995-4 0  9996
2 35935  98.6157 278.7823 0008452  21.8755 338.2801 14.55699986609841
XIWANG-1 (HOPE-1)       
1 36122U 09072B   21079.83274837 -.00000041  00000-0  45720-5 0  9992
2 36122 100.1231  64.1992 0006913 309.5329  50.5173 13.16359445541232
CARTOSAT-2B             
1 36795U 10035A   21079.73162586  .00000073  00000-0  17008-4 0  9996
2 36795  97.8810 140.2484 0012366 270.4760  89.5027 14.78711082577012
TISAT 1                 
1 36799U 10035E   21079.50498335  .00000382  00000-0  44171-4 0  9993
2 36799  98.2064 266.7154 0013020 140.7529 219.4634 14.91642544580079
FENGYUN 3B              
1 37214U 10059A   21079.85063363 -.00000005  00000-0  20796-4 0  9999
2 37214  99.0754  72.2551 0016485 201.8375 158.2098 14.15979454536797
JUGNU                   
1 37839U 11058B   21079.61971426  .00000309  00000-0  22567-4 0  9998
2 37839  19.9619  47.9451 0018948 192.3501 322.1879 14.12707296487884
SRMSAT                  
1 37841U 11058D   21079.45306806  .00000301  00000-0  20046-4 0  9999
2 37841  19.9713 118.9943 0012025  36.7704  95.0228 14.10688354487125
M-CUBED & EXP-1 PRIME   
1 37855U 11061F   21079.61881171  .00002203  00000-0  11335-3 0  9992
2 37855 101.7205 316.9658 0167936 334.9131  24.3990 15.07334566512791
HORYU-2                 
1 38340U 12025D   21079.74653628  .00000242  00000-0  42939-4 0  9997
2 38340  98.2422 145.4155 0010478 234.4438 125.5794 14.75995313465308
METOP-B                 
1 38771U 12049A   21079.95910880 -.00000009  00000-0  15956-4 0  9991
2 38771  98.6900 141.2506 0000312 280.9760  65.5319 14.21500670441304
SARAL                   
1 39086U 13009A   21079.93483829 -.00000012  00000-0  11806-4 0  9998
2 39086  98.5453 267.3069 0001706 121.2427 238.8924 14.32046850421576
AAUSAT 3                
1 39087U 13009B   21079.53383823  .00000124  00000-0  57674-4 0  9994
2 39087  98.4303 284.7998 0012487 176.7170 183.4094 14.35908407422439
STRAND-1                
1 39090U 13009E   21079.58564476  .00000030  00000-0  25563-4 0  9996
2 39090  98.4353 283.8455 0009136 175.8964 184.2298 14.35172999422292
BRITE-AUSTRIA           
1 39091U 13009F   21079.50128759  .00000013  00000-0  19522-4 0  9998
2 39091  98.4352 282.8924 0010353 183.7958 176.3150 14.35178559422316
UNIBRITE                
1 39092U 13009G   21079.48220751  .00000015  00000-0  20398-4 0  9996
2 39092  98.4379 282.5693 0009376 177.9043 182.2184 14.35049998422271
SOMP                    
1 39134U 13015E   21079.43468454  .00002011  00000-0  96054-4 0  9999
2 39134  64.8613 101.8702 0006479 236.8078 123.2430 15.22169983437666
BEESAT-3                
1 39135U 13015F   21079.51182778  .00001697  00000-0  89971-4 0  9990
2 39135  64.8655 129.3652 0009787 199.9987 160.0758 15.19060201437138
BEESAT-2                
1 39136U 13015G   21079.53852621  .00001576  00000-0  85238-4 0  9992
2 39136  64.8743 135.3079 0028002 253.2391 106.5662 15.18441814437008
NEE-01 PEGASO           
1 39151U 13018B   21079.81006218  .00000254  00000-0  40297-4 0  9994
2 39151  97.9732 182.8207 0015620 286.2725  73.6769 14.80304642426554
CUBEBUG-1 (CAPITAN BETO)
1 39153U 13018D   21079.86220317  .00000320  00000-0  48393-4 0  9998
2 39153  97.9869 185.8861 0015468 281.1962  78.7511 14.80878265426618
